*******************************************************************************
JPL/HORIZONS                    (2000 SG344)               2013-Jun-24 13:40:47
Rec #:504639 (+COV)   Soln.date: 2011-Sep-14_19:39:13     # obs: 31 (1999-2000)
 
FK5/J2000.0 helio. ecliptic osc. elements (AU, DAYS, DEG, period=Julian yrs):  
 
  EPOCH=  2451755.5 ! 2000-Jul-30.00 (CT)          Residual RMS= .29749        
   EC= .06619718080705801  QR= .9168402354181692   TP= 2451903.6448571617      
   OM= 193.1027127406436   W=  271.3450949992177   IN= .1079533836461884       
   A= .9818349404969317    MA= 209.916507068312    ADIST= 1.046829645575694    
   PER= .97289             N= 1.013086082          ANGMOM= .017007757          
   DAN= .97602             DDN= .97905             L= 104.4478101              
   B= -.1079236            MOID= .00082938902778550TP= 2000-Dec-25.1448571617  
 
Physical parameters (KM, SEC, rotational period in hours):
   GM= n.a.                RAD= n.a.               ROTPER= n.a.                
   H= 24.788               G= .150                 B-V= n.a.                   
                           ALBEDO= n.a.            STYP= n.a.                  
 
ASTEROID comments: 
1: soln ref.= JPL#13, OCC=2
2: source=ORB
*******************************************************************************
 
 
*******************************************************************************
Ephemeris / WWW_USER Mon Jun 24 13:40:47 2013 Pasadena, USA      / Horizons    
*******************************************************************************
Target body name: (2000 SG344)                    {source: JPL#13}
Center body name: Solar System Barycenter (0)     {source: DE405}
Center-site name: BODY CENTER
*******************************************************************************
Start time      : A.D. 2028-Mar-31 00:00:00.0000 CT 
Stop  time      : A.D. 2028-Apr-03 00:00:00.0000 CT 
Step-size       : 60 minutes
*******************************************************************************
Center geodetic : 0.00000000,0.00000000,0.0000000 {E-lon(deg),Lat(deg),Alt(km)}
Center cylindric: 0.00000000,0.00000000,0.0000000 {E-lon(deg),Dxy(km),Dz(km)}
Center radii    : (undefined)                                                  
Small perturbers: Ceres, Pallas, Vesta            {source: SB405-CPV-2}
Small body GMs  : 6.32E+01, 1.43E+01, 1.78E+01 km^3/s^2                        
Output units    : KM-S                                                         
Output format   : 05
Reference frame : ICRF/J2000.0                                                 
Output type     : GEOMETRIC cartesian states
Coordinate systm: Ecliptic and Mean Equinox of Reference Epoch                 
*******************************************************************************
Initial FK5/J2000.0 heliocentric ecliptic osculating elements (AU, DAYS, DEG):
  EPOCH=  2451755.5 ! 2000-Jul-30.00 (CT)          Residual RMS= .29749        
   EC= .06619718080705801  QR= .9168402354181692   TP= 2451903.6448571617      
   OM= 193.1027127406436   W=  271.3450949992177   IN= .1079533836461884       
Asteroid physical parameters (KM, SEC, rotational period in hours):
   GM= n.a.                RAD= n.a.               ROTPER= n.a.                
   H= 24.788               G= .150                 B-V= n.a.                   
                           ALBEDO= n.a.            STYP= n.a.                  
*******************************************************************************
JDCT 
   VX    VY    VZ
*******************************************************************************
$$SOE
2461863.500000000 = A.D. 2028-Apr-02 00:00:00.0000 (CT)
   3.533191110010512E+00 -3.028438158706833E+01  6.005107064554047E-02
2461863.541666667 = A.D. 2028-Apr-02 01:00:00.0000 (CT)
   3.555662738380852E+00 -3.028025058298167E+01  6.005202355648989E-02
2461863.583333333 = A.D. 2028-Apr-02 02:00:00.0000 (CT)
   3.578128927425894E+00 -3.027610302238832E+01  6.005294133348851E-02
2461863.625000000 = A.D. 2028-Apr-02 03:00:00.0000 (CT)
   3.600589665289164E+00 -3.027193891300583E+01  6.005382398087859E-02
2461863.666666667 = A.D. 2028-Apr-02 04:00:00.0000 (CT)
   3.623044940128563E+00 -3.026775826255906E+01  6.005467150298301E-02
2461863.708333333 = A.D. 2028-Apr-02 05:00:00.0000 (CT)
   3.645494740111642E+00 -3.026356107878105E+01  6.005548390411374E-02
2461863.750000000 = A.D. 2028-Apr-02 06:00:00.0000 (CT)
   3.667939053415340E+00 -3.025934736941308E+01  6.005626118856789E-02
2461863.791666667 = A.D. 2028-Apr-02 07:00:00.0000 (CT)
   3.690377868230079E+00 -3.025511714220386E+01  6.005700336063655E-02
2461863.833333333 = A.D. 2028-Apr-02 08:00:00.0000 (CT)
   3.712811172757281E+00 -3.025087040491002E+01  6.005771042459054E-02
2461863.875000000 = A.D. 2028-Apr-02 09:00:00.0000 (CT)
   3.735238955206428E+00 -3.024660716529662E+01  6.005838238469115E-02
2461863.916666667 = A.D. 2028-Apr-02 10:00:00.0000 (CT)
   3.757661203800939E+00 -3.024232743113602E+01  6.005901924518561E-02
2461863.958333333 = A.D. 2028-Apr-02 11:00:00.0000 (CT)
   3.780077906775241E+00 -3.023803121020848E+01  6.005962101030661E-02
2461864.000000000 = A.D. 2028-Apr-02 12:00:00.0000 (CT)
   3.802489052371830E+00 -3.023371851030262E+01  6.006018768426637E-02
2461864.041666667 = A.D. 2028-Apr-02 13:00:00.0000 (CT)
   3.824894628847153E+00 -3.022938933921438E+01  6.006071927127765E-02
2461864.083333333 = A.D. 2028-Apr-02 14:00:00.0000 (CT)
   3.847294624468666E+00 -3.022504370474749E+01  6.006121577552798E-02
2461864.125000000 = A.D. 2028-Apr-02 15:00:00.0000 (CT)
   3.869689027511911E+00 -3.022068161471407E+01  6.006167720119008E-02
2461864.166666667 = A.D. 2028-Apr-02 16:00:00.0000 (CT)
   3.892077826266381E+00 -3.021630307693348E+01  6.006210355242469E-02
2461864.208333333 = A.D. 2028-Apr-02 17:00:00.0000 (CT)
   3.914461009032594E+00 -3.021190809923283E+01  6.006249483338017E-02
2461864.250000000 = A.D. 2028-Apr-02 18:00:00.0000 (CT)
   3.936838564119160E+00 -3.020749668944761E+01  6.006285104818307E-02
2461864.291666667 = A.D. 2028-Apr-02 19:00:00.0000 (CT)
   3.959210479848649E+00 -3.020306885542048E+01  6.006317220095277E-02
2461864.333333333 = A.D. 2028-Apr-02 20:00:00.0000 (CT)
   3.981576744554665E+00 -3.019862460500184E+01  6.006345829578220E-02
2461864.375000000 = A.D. 2028-Apr-02 21:00:00.0000 (CT)
   4.003937346578915E+00 -3.019416394605041E+01  6.006370933676025E-02
2461864.416666667 = A.D. 2028-Apr-02 22:00:00.0000 (CT)
   4.026292274277072E+00 -3.018968688643205E+01  6.006392532794769E-02
2461864.458333333 = A.D. 2028-Apr-02 23:00:00.0000 (CT)
   4.048641516015852E+00 -3.018519343402033E+01  6.006410627339738E-02
2461864.500000000 = A.D. 2028-Apr-03 00:00:00.0000 (CT)
   4.070985060170084E+00 -3.018068359669709E+01  6.006425217714165E-02
